{
  "type": "FeatureCollection",
  "features": [
    {
      "type": "Feature",
      "properties": {
        "norad_id": 53093,
        "name": "COSMOS 2251 DEB",
        "group": "cosmos-2251-debris",
        "lat": -69.40582500185714,
        "lon": 143.1505483345806,
        "alt_km": 759.341162637711,
        "timestamp": "2025-12-27T19:21:59.143336+00:00",
        "meta_object_name": "COSMOS 2251 DEB",
        "meta_object_id": "1993-036BYP",
        "meta_epoch": "2025-12-27T11:31:03.621792",
        "meta_mean_motion": 14.4196228,
        "meta_eccentricity": 0.0020003,
        "meta_inclination": 74.036,
        "meta_ra_of_asc_node": 274.1338,
        "meta_arg_of_pericenter": 349.2214,
        "meta_mean_anomaly": 10.851,
        "meta_ephemeris_type": 0,
        "meta_classification_type": "U",
        "meta_norad_cat_id": 53093,
        "meta_element_set_no": 999,
        "meta_rev_at_epoch": 17938,
        "meta_bstar": 0.0009563,
        "meta_mean_motion_dot": 3.117e-05,
        "meta_mean_motion_ddot": 0,
        "tle_line1": "1 53093U 93036BYP 25361.47990303  .00003117  00000+0  95630-3 0  9990",
        "tle_line2": "2 53093  74.0360 274.1338 0020003 349.2214  10.8510 14.41962280179380"
      },
      "geometry": {
        "type": "Point",
        "coordinates": [
          143.1505483345806,
          -69.40582500185714
        ]
      }
    }
  ]
}